#dP2024  8  1  0  0  0.00000000      96 __u+U IGS20 FIT  IAC
## 2325 345600.00000000   900.00000000 60523 0.0000000000000
+   54   G02G03G04G05G06G07G08G09G10G11G12G13G14G15G16G17G18
+        G19G20G21G22G23G24G25G26G27G28G29G30G31G32R01R02R03
+        R04R05R07R08R09R11R12R13R14R15R16R17R18R19R20R21R22
+        R24R25R26  0  0  0  0  0  0  0  0  0  0  0  0  0  0
+          0  0  0  0  0  0  0  0  0  0  0  0  0  0  0  0  0
++         6  7  7  7  7  6  6  6  7  7  7  7  6  7  5  8  7
++         6  7  7  6  7  6  7  6  8  6  6  6  6  6  8  7  6
++         6  6  7  7  6  6  6  0  7  6  6  7  7  8  8  7  8
++         8  7  6  0  0  0  0  0  0  0  0  0  0  0  0  0  0
++         0  0  0  0  0  0  0  0  0  0  0  0  0  0  0  0  0
%c M  cc GPS ccc cccc cccc cccc cccc ccccc ccccc ccccc ccccc
%c cc cc ccc ccc cccc cccc cccc cccc ccccc ccccc ccccc ccccc
%f  0.0000000  0.000000000  0.00000000000  0.000000000000000
%f  0.0000000  0.000000000  0.00000000000  0.000000000000000
%i    0    0    0    0      0      0      0      0         0
%i    0    0    0    0      0      0      0      0         0
/* INFORMATION & ANALYSIS CENTER (IAC)      ULTRA-RAPID DATA
/* S/V CLOCKS ARE ALIGNED TO GNSS TIME                      
/* G:C1WC2W R:C1PC2P E:C1XC5X C:C2IC6I J:C1CC2S             
/* PCV:IGS20_2317 OL/AL:FES2004  NONE     YN ORB:CoN CLK:CoN
*  2024 08 01 22  0  0.00000000
PG02 -15975.447029   -510.418361  21731.906282   -387.412541
PG03 -21661.799326  10917.929051  10513.791528    483.041817
PG04 -23862.453585    681.050568 -11776.294410    415.773293
PG05  16388.715811   3383.304633 -20827.905802   -181.771003
PG06   4759.968494  26017.285595   1740.048988    125.161168
PG07  -8068.868787  18076.189866 -16958.271352    -58.849830
PG08 -26058.514420  -6207.718939    572.929862    298.933185
PG09 -15500.066618   9868.986238 -19285.026568    296.977554
PG10   5561.233356 -20228.484877  16293.722855    -81.995834
PG11  12288.334696  20396.863606 -11806.345090   -714.916619
PG12  22176.433118  -7188.325619  12403.758456   -527.030659
PG13  21864.528809  14257.289718  -5775.875273    668.268627
PG14  -9275.216704  21144.705926  12971.788825    462.654154
PG15  26442.900989   3309.708852    197.837486    187.794843
PG16 -13737.864736  -8288.230946 -21562.063488   -220.228283
PG17   -502.139183  15742.367175  21786.360531    664.769712
PG18   7731.105516 -18643.634956 -17135.793580   -642.408152
PG19   9598.262702  17215.408096  17834.870109    518.760007
PG20   9405.017797  12705.349061 -21296.074839    372.129697
PG21 -17095.072990  -7299.391723  19756.647848    105.399688
PG22  -2543.113748  18972.787843  18949.819172    -46.510716
PG23  15465.840802 -20768.115804   5403.356979    287.593102
PG24  16750.373429   2925.168072  20062.561629   -485.208332
PG25  20151.252399 -16706.408082   3247.163880    499.012686
PG26  -3648.590433 -17741.500411 -19463.537707    108.821631
PG27 -21347.417914 -13107.202588  -9731.392789    -32.352593
PG28  -4249.589541 -25896.030294   4083.924917   -355.652490
PG29  19022.542176  -5792.915014 -17715.689437   -586.444601
PG30   -728.496048  24802.934262  -8940.678115   -347.481758
PG31 -10705.379064 -22869.616068  -7788.011871   -226.270603
PG32  -2550.812387 -16072.269374  21240.488587   -608.694775
PR01  25375.383045  -2124.014495  -1627.026639     93.202293
PR02  19090.598136  -8294.213994  14739.089401    -23.935642
PR03   1780.499167 -10956.786080  23004.957357    104.853511
PR04 -15813.453121  -7432.992914  18614.945780    247.949145
PR05 -25164.665425   -156.577251   4251.325303    135.428374
PR07  -1177.689294  10896.500300 -22998.950851     87.924959
PR08  16088.511957   7263.269200 -18342.293468     -6.240071
PR09 -13316.103182  19734.950506  -9017.344045    201.018355
PR11   3631.305396  15197.336310  20170.577421     16.287201
PR12  13200.640868  -3968.442790  21491.342245     43.138766
PR13      0.000000      0.000000      0.000000 999999.999999
PR14   6238.819398 -23383.600213  -8078.398804     26.755902
PR15  -4633.339515 -13917.923383 -20845.279262     77.288675
PR16 -12977.238185   3862.858323 -21592.894454     27.904802
PR17  -6338.827063 -20412.208601 -13877.976364    109.837470
PR18 -14919.638171 -20620.293812   2002.710232    154.936453
PR19 -15947.264553 -12256.657505  15676.761742   -286.029665
PR20  -7329.694533   7786.951194  23161.567906   -117.053387
PR21   5892.547092  20303.876242  14297.037658   -122.478927
PR22  14805.867567  20528.791545  -3124.427971     77.756978
PR24   6992.602779  -8862.864381 -22857.677489    -66.103444
PR25   5648.168341  20901.645050  13513.207036    -99.102186
PR26  14894.062762   7679.289148 -19223.146727      7.427956
*  2024 08 01 22 15  0.00000000
PG02 -16751.301683  -2716.233449  20981.118987   -387.405691
PG03 -20820.114623   9826.789637  12975.197056    483.055888
PG04 -24957.642282    147.444243  -9273.058947    415.780122
PG05  14843.824084   5200.227404 -21597.614922   -181.772649
PG06   4496.773199  25716.883741   4628.281220    125.139723
PG07  -8830.879911  16062.093870 -18528.998511    -58.843633
PG08 -25925.451450  -6429.979902  -2239.020753    298.946910
PG09 -17520.653017   9268.478195 -17793.299278    296.991305
PG10   6871.352311 -21348.645022  14173.152362    -82.005315
PG11  12357.221733  21620.938188  -9301.147154   -714.922137
PG12  21125.605244  -5976.181515  14635.072943   -527.033188
PG13  21068.088722  14132.061228  -8485.679493    668.271041
PG14 -10429.624956  21898.998472  10601.356185    462.662057
PG15  26330.623949   3609.260545  -2594.006745    187.798539
PG16 -11915.074927  -9871.033858 -21943.175762   -220.218747
PG17  -2817.033342  15029.056374  22132.140243    664.762096
PG18   8379.722337 -16680.937728 -18791.816167   -642.411323
PG19   7554.040729  16568.904717  19316.647193    518.764855
PG20   7998.903756  14665.008558 -20615.771050    372.129130
PG21 -17769.277651  -9257.065518  18348.338786    105.397148
PG22  -4137.301907  20173.655851  17349.795960    -46.514590
PG23  15930.535297 -20956.044222   2544.987322    287.600953
PG24  17483.917819   5129.519167  19026.137835   -485.209198
PG25  19978.976119 -16080.484979   6028.306390    499.012928
PG26  -2144.051192 -19278.682181 -18137.719259    108.815015
PG27 -20136.672834 -12996.676517 -12184.095565    -32.353209
PG28  -3826.892996 -25371.898180   6849.011156   -355.666266
PG29  20784.384837  -5049.593294 -15873.782114   -586.442850
PG30  -1348.755519  23733.233556 -11415.251062   -347.475854
PG31 -10604.221483 -23636.222614  -5052.273380   -226.270291
PG32   -199.230729 -15531.081898  21776.269451   -608.692606
PR01  24961.537631  -2212.470081  -4807.127385     93.203733
PR02  20719.454257  -8608.657042  12112.935719    -23.935428
PR03   4552.953828 -11312.181231  22438.526601    104.854253
PR04 -13416.531203  -7592.196033  20352.514835    247.951232
PR05 -24433.517224    -54.908589   7374.182088    135.428644
PR07  -3973.475476  11250.050548 -22515.485747     87.926129
PR08  13707.623958   7453.257054 -20112.019966     -6.239875
PR09 -12777.809695  18556.988517 -11852.189131    201.019805
PR11   2791.285784  17424.360179  18425.133800     16.286061
PR12  12114.196918  -1494.154062  22427.377862     43.139600
PR13      0.000000      0.000000      0.000000 999999.999999
PR14   6444.179028 -24174.825922  -5016.956075     26.756247
PR15  -3722.656617 -16227.592772 -19303.560866     77.288066
PR16 -11888.883539   1363.188827 -22505.314580     27.904522
PR17  -5343.322034 -18824.804836 -16328.067650    109.840381
PR18 -15115.576874 -20535.922044  -1233.269386    154.938216
PR19 -17085.231381 -13638.077030  13129.651036   -286.030577
PR20  -8921.466167   5399.694207  23284.846283   -117.054123
PR21   4892.627041  18664.513143  16702.186647   -122.481350
PR22  15036.270151  20602.617566     81.818937     77.750549
PR24   8671.464532  -6575.924672 -23055.878845    -66.104934
PR25   4721.033375  19333.483181  15976.901543    -99.103532
PR26  12427.915331   7899.999840 -20816.829448      7.429575
EOF
